[{"OBJECT_NAME":"IRIDIUM 153","OBJECT_ID":"2017-083J","EPOCH":"2026-03-09T17:37:27.321600","MEAN_MOTION":14.3421931,"ECCENTRICITY":0.00020663,"INCLINATION":86.4011,"RA_OF_ASC_NODE":332.0651,"ARG_OF_PERICENTER":78.2032,"MEAN_ANOMALY":281.9395,"EPHEMERIS_TYPE":0,"CLASSIFICATION_TYPE":"U","NORAD_CAT_ID":43078,"ELEMENT_SET_NO":999,"REV_AT_EPOCH":43102,"BSTAR":0.00013580014,"MEAN_MOTION_DOT":4.0e-6,"MEAN_MOTION_DDOT":0},{"OBJECT_NAME":"NOAA 16 DEB","OBJECT_ID":"2000-055NU","EPOCH":"2026-03-09T12:51:43.626240","MEAN_MOTION":14.37009448,"ECCENTRICITY":0.00170591,"INCLINATION":98.7164,"RA_OF_ASC_NODE":171.385,"ARG_OF_PERICENTER":78.2261,"MEAN_ANOMALY":282.0837,"EPHEMERIS_TYPE":0,"CLASSIFICATION_TYPE":"U","NORAD_CAT_ID":41655,"ELEMENT_SET_NO":999,"REV_AT_EPOCH":51303,"BSTAR":0.0020398488,"MEAN_MOTION_DOT":6.017e-5,"MEAN_MOTION_DDOT":0}]
